{
  "links" : {
    "next" : "https://api.nasa.gov/neo/rest/v1/feed?start_date=2002-10-09&end_date=2002-10-09&detailed=true&api_key=t0TVs3DtDT2H8Oy2Zy8m2eVrNsAVKAexjcZXUckd",
    "prev" : "https://api.nasa.gov/neo/rest/v1/feed?start_date=2002-10-07&end_date=2002-10-07&detailed=true&api_key=t0TVs3DtDT2H8Oy2Zy8m2eVrNsAVKAexjcZXUckd",
    "self" : "https://api.nasa.gov/neo/rest/v1/feed?start_date=2002-10-08&end_date=2002-10-08&detailed=true&api_key=t0TVs3DtDT2H8Oy2Zy8m2eVrNsAVKAexjcZXUckd"
  },
  "element_count" : 7,
  "near_earth_objects" : {
    "2002-10-08" : [ {
      "links" : {
        "self" : "https://api.nasa.gov/neo/rest/v1/neo/3136733?api_key=t0TVs3DtDT2H8Oy2Zy8m2eVrNsAVKAexjcZXUckd"
      },
      "neo_reference_id" : "3136733",
      "name" : "(2002 SN)",
      "nasa_jpl_url" : "http://ssd.jpl.nasa.gov/sbdb.cgi?sstr=3136733",
      "absolute_magnitude_h" : 20.5,
      "estimated_diameter" : {
        "kilometers" : {
          "estimated_diameter_min" : 0.2111324448,
          "estimated_diameter_max" : 0.4721064988
        },
        "meters" : {
          "estimated_diameter_min" : 211.1324447897,
          "estimated_diameter_max" : 472.1064988055
        },
        "miles" : {
          "estimated_diameter_min" : 0.1311915784,
          "estimated_diameter_max" : 0.2933532873
        },
        "feet" : {
          "estimated_diameter_min" : 692.6917701639,
          "estimated_diameter_max" : 1548.9058855411
        }
      },
      "is_potentially_hazardous_asteroid" : false,
      "close_approach_data" : [ {
        "close_approach_date" : "2002-10-08",
        "epoch_date_close_approach" : 1034060400000,
        "relative_velocity" : {
          "kilometers_per_second" : "3.803816516",
          "kilometers_per_hour" : "13693.7394576078",
          "miles_per_hour" : "8508.7571646452"
        },
        "miss_distance" : {
          "astronomical" : "0.2185459329",
          "lunar" : "85.0143661499",
          "kilometers" : "32694006",
          "miles" : "20315114"
        },
        "orbiting_body" : "Earth"
      } ],
      "orbital_data" : {
        "orbit_id" : "19",
        "orbit_determination_date" : "2017-04-06 09:14:49",
        "orbit_uncertainty" : "6",
        "minimum_orbit_intersection" : ".218403",
        "jupiter_tisserand_invariant" : "3.796",
        "epoch_osculation" : "2458000.5",
        "eccentricity" : ".3780023972989719",
        "semi_major_axis" : "1.949274968031914",
        "inclination" : "6.425353858784675",
        "ascending_node_longitude" : "36.55962549395401",
        "orbital_period" : "994.0496700697073",
        "perihelion_distance" : "1.212444357120974",
        "perihelion_argument" : "337.2924809410183",
        "aphelion_distance" : "2.686105578942855",
        "perihelion_time" : "2457523.185643462842",
        "mean_anomaly" : "172.8617528149545",
        "mean_motion" : ".3621549413871393",
        "equinox" : "J2000"
      }
    }, {
      "links" : {
        "self" : "https://api.nasa.gov/neo/rest/v1/neo/3327141?api_key=t0TVs3DtDT2H8Oy2Zy8m2eVrNsAVKAexjcZXUckd"
      },
      "neo_reference_id" : "3327141",
      "name" : "(2006 EW52)",
      "nasa_jpl_url" : "http://ssd.jpl.nasa.gov/sbdb.cgi?sstr=3327141",
      "absolute_magnitude_h" : 22.1,
      "estimated_diameter" : {
        "kilometers" : {
          "estimated_diameter_min" : 0.1010543415,
          "estimated_diameter_max" : 0.2259643771
        },
        "meters" : {
          "estimated_diameter_min" : 101.054341542,
          "estimated_diameter_max" : 225.9643771094
        },
        "miles" : {
          "estimated_diameter_min" : 0.0627922373,
          "estimated_diameter_max" : 0.140407711
        },
        "feet" : {
          "estimated_diameter_min" : 331.5431259047,
          "estimated_diameter_max" : 741.3529669956
        }
      },
      "is_potentially_hazardous_asteroid" : false,
      "close_approach_data" : [ {
        "close_approach_date" : "2002-10-08",
        "epoch_date_close_approach" : 1034060400000,
        "relative_velocity" : {
          "kilometers_per_second" : "4.7801708977",
          "kilometers_per_hour" : "17208.6152317103",
          "miles_per_hour" : "10692.7642810591"
        },
        "miss_distance" : {
          "astronomical" : "0.2873003392",
          "lunar" : "111.7598342896",
          "kilometers" : "42979520",
          "miles" : "26706236"
        },
        "orbiting_body" : "Earth"
      } ],
      "orbital_data" : {
        "orbit_id" : "8",
        "orbit_determination_date" : "2017-04-06 09:08:55",
        "orbit_uncertainty" : "6",
        "minimum_orbit_intersection" : ".144088",
        "jupiter_tisserand_invariant" : "5.139",
        "epoch_osculation" : "2458000.5",
        "eccentricity" : ".09570012440831979",
        "semi_major_axis" : "1.245942929168558",
        "inclination" : "8.894222432579726",
        "ascending_node_longitude" : "343.555974005734",
        "orbital_period" : "507.9788745395734",
        "perihelion_distance" : "1.126706035841461",
        "perihelion_argument" : "304.9336876743185",
        "aphelion_distance" : "1.365179822495656",
        "perihelion_time" : "2458027.797137135471",
        "mean_anomaly" : "340.6547676265545",
        "mean_motion" : ".7086908886246501",
        "equinox" : "J2000"
      }
    }, {
      "links" : {
        "self" : "https://api.nasa.gov/neo/rest/v1/neo/2354182?api_key=t0TVs3DtDT2H8Oy2Zy8m2eVrNsAVKAexjcZXUckd"
      },
      "neo_reference_id" : "2354182",
      "name" : "354182 (2002 DU3)",
      "nasa_jpl_url" : "http://ssd.jpl.nasa.gov/sbdb.cgi?sstr=2354182",
      "absolute_magnitude_h" : 20.7,
      "estimated_diameter" : {
        "kilometers" : {
          "estimated_diameter_min" : 0.1925550782,
          "estimated_diameter_max" : 0.4305662442
        },
        "meters" : {
          "estimated_diameter_min" : 192.5550781879,
          "estimated_diameter_max" : 430.566244241
        },
        "miles" : {
          "estimated_diameter_min" : 0.1196481415,
          "estimated_diameter_max" : 0.2675413778
        },
        "feet" : {
          "estimated_diameter_min" : 631.7424027221,
          "estimated_diameter_max" : 1412.6189567557
        }
      },
      "is_potentially_hazardous_asteroid" : true,
      "close_approach_data" : [ {
        "close_approach_date" : "2002-10-08",
        "epoch_date_close_approach" : 1034060400000,
        "relative_velocity" : {
          "kilometers_per_second" : "7.2749524702",
          "kilometers_per_hour" : "26189.8288927779",
          "miles_per_hour" : "16273.3411806264"
        },
        "miss_distance" : {
          "astronomical" : "0.3374901218",
          "lunar" : "131.2836608887",
          "kilometers" : "50487804",
          "miles" : "31371666"
        },
        "orbiting_body" : "Earth"
      } ],
      "orbital_data" : {
        "orbit_id" : "34",
        "orbit_determination_date" : "2017-04-06 09:23:01",
        "orbit_uncertainty" : "0",
        "minimum_orbit_intersection" : ".00658933",
        "jupiter_tisserand_invariant" : "5.444",
        "epoch_osculation" : "2458000.5",
        "eccentricity" : ".2382123854500691",
        "semi_major_axis" : "1.14544120272228",
        "inclination" : "8.701003532177795",
        "ascending_node_longitude" : ".6963998077277658",
        "orbital_period" : "447.772717222247",
        "perihelion_distance" : ".8725829214290094",
        "perihelion_argument" : "245.4996140748731",
        "aphelion_distance" : "1.41829948401555",
        "perihelion_time" : "2457786.873450461066",
        "mean_anomaly" : "171.7513257866601",
        "mean_motion" : ".8039793094882064",
        "equinox" : "J2000"
      }
    } ]
  }
}